UARS
1 21701U 91 63  B 91260.55628097  .00013872  00000-0  11656-2 0    50
2 21701  56.9497 220.9395 0023818  14.2767 344.9906 14.98387623   693
1 21701U 91 63  B 91267.10146639  .00004327  00000-0  39929-3 0    98
2 21701  56.9832 194.6162 0004554  93.6293 266.5321 14.96433067  1677
1 21701U 91 63  B 91273.51448242 -.00000122  00000-0 -82338-7 0   104
2 21701  56.9850 168.9203 0004838  94.0308 266.2888 14.96495021  2634
1 21701U 91 63  B 91284.00181371  .00003777  00000-0  34988-3 0   119
2 21701  56.9827 126.8916 0005276  98.1854 261.9782 14.96588138  4202
1 21701U 91 63  B 91301.76874801  .00004669  00000-0  42563-3 0   129
2 21701  56.9830  55.6739 0004904 105.7607 254.3972 14.96757727  6869
1 21701U 91063  B 91308.91523324 -.00219425  00000-0  00000+0 0 00141
2 21701 056.9825 027.0240 0005245 108.0848 252.1547 14.96161254007932
1 21701U 91 63  B 91341.04503444  .00002993  00000-0  28098-3 0   772
2 21701  56.9863 258.2653 0004807  93.3464 266.8084 14.96668774 12745
1 21701U 91 63  B 91351.79834655  .00004253  00000-0  38940-3 0   785
2 21701  56.9862 215.1611 0004957 117.2771 242.8811 14.96769117 14357
1 21701U 91 63  B 92 15.51487099  .00005815  00000-0  52080-3 0   796
2 21701  56.9858 100.0165 0005477  90.1013 270.0637 14.97063403 18656
1 21701U 91 63  B 92 22.53007499  .00001363  00000-0  14060-3 0   822
2 21701  56.9850  71.9134 0004570 103.0399 257.1141 14.96341604 19708
1 21701U 91 63  B 92 45.24332693  .00005967  00000-0  54074-3 0   858
2 21701  56.9870 340.9070 0004772 102.0601 258.0958 14.96564319 23102
1 21701U 91 63  B 92 51.18823386  .00005220  00000-0  47512-3 0   875
2 21701  56.9873 317.0852 0004747 104.2258 255.9303 14.96621868 23992
1 21701U 91 63  B 92 57.06600453  .00006108  00000-0  55107-3 0   905
2 21701  56.9857 293.5217 0005409 101.6380 258.5391 14.96709301 24873
1 21701U 91 63  B 92 62.07506921  .00009213  00000-0  81719-3 0   938
2 21701  56.9846 273.4382 0004877  89.6140 270.5449 14.96833382 25627
1 21701U 91 63  B 92 68.61988638  .00006984  00000-0  62331-3 0   956
2 21701  56.9689 247.1874 0006433  93.9309 266.2293 14.96920669 26604
1 21701U 91 63  B 92 77.76877552  .00004969  00000-0  44862-3 0   987
2 21701  56.9830 210.5032 0005009  97.7684 262.3915 14.97006476 27979
1 21701U 91 63  B 92 82.37637233  .00005172  00000-0  46558-3 0   992
2 21701  56.9827 192.0229 0004900 101.1067 259.0520 14.97058175 28666
1 21701U 91 63  B 92 87.25289305  .00005271  00000-0  48401-3 0  1032
2 21701  56.9854 172.4880 0004336 101.7373 258.4590 14.96243962 29390
1 21701U 91 63  B 92 92.33057581  .00002691  00000-0  25741-3 0  1042
2 21701  56.9825 152.1452 0004005 101.9532 258.1922 14.96266066 30152
1 21701U 91 63  B 92 98.07630694  .00001931  00000-0  19047-3 0  1050
2 21701  56.9842 129.1333 0004125  93.1907 266.9594 14.96285154 31011
1 21701U 91063  B 92102.08493278  .00000533  00000-0  46732-4 0 01062
2 21701 056.9844 113.0728 0002022 080.2053 279.9990 14.96289092031611
1 21701U 91063  B 92107.09565246  .00001511  00000-0  13239-3 0 01076
2 21701 056.9836 092.9987 0002090 076.1596 284.0466 14.96306702032361
1 21701U 91 63  B 92133.08303912  .00003206  00000-0  30108-3 0  1712
2 21701  56.9866 348.8818 0005087  76.6430 283.5254 14.96465015 36255
1 21701U 91 63  B 92157.33110239 -.00001454  00000-0 -11717-3 0  1725
2 21701  56.9839 251.7076 0004932 104.8035 251.2548 14.96260948 39884
1 21701U 91 63  B 92186.12781724  .00178690  00000-0  15311-1 0  1746
2 21701  56.9867 136.3622 0004756  99.9623 260.1846 14.96279022 44194
1 21701U 91 63  B 92193.27674739  .00003816  00000-0  35633-3 0  1756
2 21701  56.9828 107.7200 0004493  89.3241 270.8300 14.96240862 45264
1 21701U 91 63  B 92197.81998156  .00000506  00000-0  54976-4 0  1779
2 21701  56.9833  89.5207 0005228  98.8409 261.3446 14.96243512 45948
1 21701U 91 63  B 92210.04634524  .00001918  00000-0  18929-3 0  1782
2 21701  56.9855  40.5524 0004440  75.5995 284.5417 14.96298969 47772
1 21701U 91 63  B 92235.16609408 -.00001169  00000-0 -91982-4 0  1797
2 21701  56.9891 299.9089 0004813  88.1664 272.0055 14.96350401 51534
1 21701U 91 63  B 92260.35260030 -.00066952  00000-0 -59718-2 0  1802
2 21701  56.9870 198.9983 0005691  78.9112 281.2559 14.96335880 55306
1 21701U 91063  B 92274.04801263  .00002676  00000-0  23400-3 0 01825
2 21701 056.9832 144.1296 0003466 099.7848 260.4313 14.96387978057358
1 21701U 91 63  B 92283.93505312  .00002165  00000-0  21028-3 0  2287
2 21701  56.9838 104.5175 0005092 106.5936 253.5657 14.96438525 58835
1 21701U 91 63  B 92306.58063033  .00001952  00000-0  19131-3 0  2301
2 21701  56.9850  13.7741 0005440 101.0497 259.1149 14.96538198 62221
1 21701U 91 63  B 92313.52772815 -.00000337  00000-0 -18862-4 0  2318
2 21701  56.9874 345.9305 0004879  95.9682 264.1908 14.96535090 63267
1 21701U 91 63  B 92334.03492742  .00000961  00000-0  10477-3 0  2320
2 21701  56.9827 263.7458 0004323 101.2882 258.8638 14.96564965 66332
1 21701U 91 63  B 92347.46089448  .00002879  00000-0  27138-3 0  2339
2 21701  56.9859 209.9343 0004469 101.6617 258.4927 14.96649416 68348
1 21701U 91 63  B 93  9.17905481  .00001676  00000-0  16624-3 0  2340
2 21701  56.9858  98.8225 0004344  81.9353 278.2151 14.96783138 72490
1 21701U 91 63  B 93 14.58948027 -.00001253  00000-0 -98776-4 0  2368
2 21701  56.9846  77.1315 0004213  94.2859 265.3859 14.96564077 73302
1 21701U 91 63  B 93 19.26540755 -.00000453  00000-0 -28981-4 0  2388
2 21701  56.9836  58.3952 0004452  75.0880 285.0579 14.96563693 74004
1 21701U 91 63  B 93 48.72328044  .00002699  00000-0  25594-3 0  2395
2 21701  56.9850 300.3346 0004612  83.4572 276.6477 14.96600732 78414
1 21701U 91 63  B 93 57.74061066  .00002260  00000-0  21745-3 0  2405
2 21701  56.9824 264.1902 0005133  86.3220 273.8400 14.96649214 79763
1 21701U 91 63  B 93 80.38308167 -.00064920  00000-0 -57668-2 0  2424
2 21701  56.9833 173.4167 0005216 118.9066 241.5200 14.96472942 83150
1 21701U 91 63  B 93122.53196977  .00002451  00000-0  23423-3 0  2468
2 21701  56.9874   4.4971 0004735  74.4314 285.7213 14.96616599 89460
1 21701U 91 63  B 93160.33605837 -.00001747  00000-0 -14129-3 0  2471
2 21701  56.9837 212.9584 0004988  84.6975 275.4628 14.96712092 95122
1 21701U 91 63  B 93180.90809607 -.00000839  00000-0 -62477-4 0  2490
2 21701  56.9829 130.4931 0005121  81.4948 278.6647 14.96666224 98201
1 21701U 91 63  B 93200.01088054  .00003225  00000-0  30078-3 0  2503
2 21701  56.9851  53.9191 0005151 111.3468 248.8116 14.96716847101062
1 21701U 91 63  B 93220.71523818 -.00001892  00000-0 -15340-3 0  2510
2 21701  56.9864 330.9110 0005065  93.9631 266.2069 14.96828644104160
1 21701U 91 63  B 93241.02699369 -.00002000  00000-0 -16573-3 0  2546
2 21701  56.9809 249.5518 0003371 106.2115 253.9291 14.96133594107200
1 21701U 91 63  B 93247.37464806 -.00000772  00000-0 -57565-4 0  2558
2 21701  56.9828 224.1299 0003966  86.4471 273.7082 14.96117854108154
1 21701U 91063B   93273.96827791  .00003301  00000-0  31171-3 0  2573
2 21701  56.9841 117.6286 0004646  96.4517 263.7045 14.96165173112137
1 21701U 91063B   93278.64533739  .00002432  00000-0  23513-3 0  3014
2 21701  56.9828  98.8945 0004765 103.9118 256.2447 14.96188134112828
1 21701U 91 63  B 93292.47565775  .00002831  00000-0  26959-3 0  4017
2 21701  56.9850  43.4931 0005228  80.2682 279.7906 14.96252611114893
1 21701U 91063B   93299.08996195  .00002176  00000-0  21212-3 0  4047
2 21701  56.9832  16.9995 0005264  94.9029 265.2588 14.96283792115885
1 21701U 91063B   93303.16540670 -.00000006  00000-0  10000-4 0  4084
2 21701  56.9859   0.6732 0005876  85.0661 274.8715 14.96258310116499
1 21701U 91063B   93309.31219655 -.00002650  00000-0 -22264-3 0  4119
2 21701  56.9841 336.0504 0005602  88.9850 271.1633 14.96217444117417
1 21701U 91063B   93315.59270845 -.00001996  00000-0 -16511-3 0  4125
2 21701  56.9842 310.8939 0005642  92.8950 267.4094 14.96195848118366
1 21701U 91063B   93320.80422262 -.00001889  00000-0 -15578-3 0  4142
2 21701  56.9838 290.0183 0005706  92.3355 267.8337 14.96177320119131
1 21701U 91063B   93327.35214307 -.00001664  00000-0 -13600-3 0  4154
2 21701  56.9835 263.7915 0005840  94.0654 266.1542 14.96158019120112
1 21701U 91063B   93332.63061551  .00004494  00000-0  41654-3 0  4165
2 21701  56.9840 242.6493 0005839  92.2745 267.9904 14.96170835120902
1 21701U 91063B   93338.77748470  .00004023  00000-0  37466-3 0  4173
2 21701  56.9831 218.0293 0005890  99.4620 260.6298 14.96222767121825
1 21701U 91063B   93347.79704880  .00002750  00000-0  26250-3 0  4198
2 21701  56.9823 181.8981 0005886 101.3706 258.6133 14.96277614123176
1 21701U 91063B   93353.54272084  .00002000  00000-0  19656-3 0  4206
2 21701  56.9812 158.8802 0005837 102.7207 257.2828 14.96300387124044
1 21701U 91063B   93357.95215006  .00001945  00000-0  19167-3 0  4435
2 21701  56.9813 141.2147 0005673 102.9015 257.2660 14.96319664124705
1 21701U 91063B   93362.29467793  .00002147  00000-0  20924-3 0  4449
2 21701  56.9814 123.8167 0005590 106.6502 253.5156 14.96341260125352
1 21701U 91063B   94001.63714059  .00002371  00000-0  22872-3 0  4452
2 21701  56.9824 106.4196 0005531 107.2617 252.9022 14.96365044126005
1 21701U 91063B   94007.58285349  .00002428  00000-0  23350-3 0  4575
2 21701  56.9838  82.5980 0005475 103.5026 256.6614 14.96400349126898
1 21701U 91063B   94017.06945604 -.00000127  00000-0  10000-4 0  4637
2 21701  56.9831  44.5890 0005044  98.6207 261.5701 14.96336921128311
1 21701U 91063B   94021.87966773  .00003458  00000-0  32424-3 0  4655
2 21701  56.9837  25.3185 0004922  99.5514 260.6089 14.96319010129035
1 21701U 91063B   94027.62528137 -.00002059  00000-0 -15969-3 0  4677
2 21701  56.9854   2.3001 0004877 106.4317 253.7256 14.96291125129893
1 21701U 91063B   94034.90760488 -.00001848  00000-0 -14123-3 0  4691
2 21701  56.9850 333.1275 0004761 109.8614 250.2926 14.96270697130985
1 21701U 91063B   94038.91625528 -.00000437  00000-0 -17255-4 0  4717
2 21701  56.9846 317.0680 0004449 104.4167 255.7433 14.96271452131588
